{
  "type": "FeatureCollection",
  "features": [
    {
      "type": "Feature",
      "properties": {
        "norad_id": 34010,
        "name": "COSMOS 2251 DEB",
        "group": "cosmos-2251-debris",
        "lat": -11.24397714602187,
        "lon": -107.69787516798178,
        "alt_km": 505.7804696123385,
        "timestamp": "2025-12-25T22:42:17.406553+00:00",
        "meta_object_name": "COSMOS 2251 DEB",
        "meta_object_id": "1993-036GV",
        "meta_epoch": "2025-12-25T18:01:12.232128",
        "meta_mean_motion": 15.20887618,
        "meta_eccentricity": 0.0005114,
        "meta_inclination": 73.9963,
        "meta_ra_of_asc_node": 255.9837,
        "meta_arg_of_pericenter": 56.8649,
        "meta_mean_anomaly": 303.3039,
        "meta_ephemeris_type": 0,
        "meta_classification_type": "U",
        "meta_norad_cat_id": 34010,
        "meta_element_set_no": 999,
        "meta_rev_at_epoch": 89483,
        "meta_bstar": 0.00404,
        "meta_mean_motion_dot": 0.00090438,
        "meta_mean_motion_ddot": 0,
        "tle_line1": "1 34010U 93036GV  25359.75083602  .00090438  00000+0  40400-2 0  9997",
        "tle_line2": "2 34010  73.9963 255.9837 0005114  56.8649 303.3039 15.20887618894834"
      },
      "geometry": {
        "type": "Point",
        "coordinates": [
          -107.69787516798178,
          -11.24397714602187
        ]
      }
    },
    {
      "type": "Feature",
      "properties": {
        "norad_id": 34011,
        "name": "COSMOS 2251 DEB",
        "group": "cosmos-2251-debris",
        "lat": 16.998707554763804,
        "lon": -49.3296598566093,
        "alt_km": 726.9957066705783,
        "timestamp": "2025-12-25T22:42:17.406563+00:00",
        "meta_object_name": "COSMOS 2251 DEB",
        "meta_object_id": "1993-036GW",
        "meta_epoch": "2025-12-24T06:39:29.454336",
        "meta_mean_motion": 14.4182197,
        "meta_eccentricity": 0.00362711,
        "meta_inclination": 74.0149,
        "meta_ra_of_asc_node": 308.7381,
        "meta_arg_of_pericenter": 29.1397,
        "meta_mean_anomaly": 331.1772,
        "meta_ephemeris_type": 0,
        "meta_classification_type": "U",
        "meta_norad_cat_id": 34011,
        "meta_element_set_no": 999,
        "meta_rev_at_epoch": 88082,
        "meta_bstar": 0.00081101718,
        "meta_mean_motion_dot": 2.646e-05,
        "meta_mean_motion_ddot": 0,
        "tle_line1": "1 34011U 93036GW  25358.27742424  .00002646  00000+0  81102-3 0  9997",
        "tle_line2": "2 34011  74.0149 308.7381 0036271  29.1397 331.1772 14.41821970880823"
      },
      "geometry": {
        "type": "Point",
        "coordinates": [
          -49.3296598566093,
          16.998707554763804
        ]
      }
    },
    {
      "type": "Feature",
      "properties": {
        "norad_id": 34014,
        "name": "COSMOS 2251 DEB",
        "group": "cosmos-2251-debris",
        "lat": 6.592743619211487,
        "lon": -103.14170361049486,
        "alt_km": 628.1589638803898,
        "timestamp": "2025-12-25T22:42:17.406573+00:00",
        "meta_object_name": "COSMOS 2251 DEB",
        "meta_object_id": "1993-036GZ",
        "meta_epoch": "2025-12-25T16:20:18.210048",
        "meta_mean_motion": 14.7328793,
        "meta_eccentricity": 0.0037619,
        "meta_inclination": 74.0164,
        "meta_ra_of_asc_node": 255.4773,
        "meta_arg_of_pericenter": 31.5535,
        "meta_mean_anomaly": 9.2384,
        "meta_ephemeris_type": 0,
        "meta_classification_type": "U",
        "meta_norad_cat_id": 34014,
        "meta_element_set_no": 999,
        "meta_rev_at_epoch": 89494,
        "meta_bstar": 0.0009566,
        "meta_mean_motion_dot": 6.228e-05,
        "meta_mean_motion_ddot": 0,
        "tle_line1": "1 34014U 93036GZ  25359.68076632  .00006228  00000+0  95660-3 0  9991",
        "tle_line2": "2 34014  74.0164 255.4773 0037619  31.5535   9.2384 14.73287930894941"
      },
      "geometry": {
        "type": "Point",
        "coordinates": [
          -103.14170361049486,
          6.592743619211487
        ]
      }
    },
    {
      "type": "Feature",
      "properties": {
        "norad_id": 34015,
        "name": "COSMOS 2251 DEB",
        "group": "cosmos-2251-debris",
        "lat": -48.87712743629657,
        "lon": -26.65114238933272,
        "alt_km": 683.6036013793046,
        "timestamp": "2025-12-25T22:42:17.406583+00:00",
        "meta_object_name": "COSMOS 2251 DEB",
        "meta_object_id": "1993-036HA",
        "meta_epoch": "2025-12-25T12:05:18.744288",
        "meta_mean_motion": 14.60401729,
        "meta_eccentricity": 0.002089,
        "meta_inclination": 74.024,
        "meta_ra_of_asc_node": 135.0381,
        "meta_arg_of_pericenter": 231.7431,
        "meta_mean_anomaly": 195.1107,
        "meta_ephemeris_type": 0,
        "meta_classification_type": "U",
        "meta_norad_cat_id": 34015,
        "meta_element_set_no": 999,
        "meta_rev_at_epoch": 88717,
        "meta_bstar": 0.0011753,
        "meta_mean_motion_dot": 5.682e-05,
        "meta_mean_motion_ddot": 0,
        "tle_line1": "1 34015U 93036HA  25359.50368917  .00005682  00000+0  11753-2 0  9996",
        "tle_line2": "2 34015  74.0240 135.0381 0020890 231.7431 195.1107 14.60401729887172"
      },
      "geometry": {
        "type": "Point",
        "coordinates": [
          -26.65114238933272,
          -48.87712743629657
        ]
      }
    },
    {
      "type": "Feature",
      "properties": {
        "norad_id": 34018,
        "name": "COSMOS 2251 DEB",
        "group": "cosmos-2251-debris",
        "lat": -31.15373302962208,
        "lon": -100.21360336558409,
        "alt_km": 1025.2862209935302,
        "timestamp": "2025-12-25T22:42:17.406593+00:00",
        "meta_object_name": "COSMOS 2251 DEB",
        "meta_object_id": "1993-036HD",
        "meta_epoch": "2025-12-25T15:18:09.495360",
        "meta_mean_motion": 13.81085757,
        "meta_eccentricity": 0.0263093,
        "meta_inclination": 73.878,
        "meta_ra_of_asc_node": 70.2393,
        "meta_arg_of_pericenter": 103.6447,
        "meta_mean_anomaly": 13.0974,
        "meta_ephemeris_type": 0,
        "meta_classification_type": "U",
        "meta_norad_cat_id": 34018,
        "meta_element_set_no": 999,
        "meta_rev_at_epoch": 84835,
        "meta_bstar": 0.00034935,
        "meta_mean_motion_dot": 4.59e-06,
        "meta_mean_motion_ddot": 0,
        "tle_line1": "1 34018U 93036HD  25359.63760990  .00000459  00000+0  34935-3 0  9995",
        "tle_line2": "2 34018  73.8780  70.2393 0263093 103.6447  13.0974 13.81085757848350"
      },
      "geometry": {
        "type": "Point",
        "coordinates": [
          -100.21360336558409,
          -31.15373302962208
        ]
      }
    },
    {
      "type": "Feature",
      "properties": {
        "norad_id": 34019,
        "name": "COSMOS 2251 DEB",
        "group": "cosmos-2251-debris",
        "lat": -31.323002153199603,
        "lon": 16.36497979447214,
        "alt_km": 807.2258272752279,
        "timestamp": "2025-12-25T22:42:17.406603+00:00",
        "meta_object_name": "COSMOS 2251 DEB",
        "meta_object_id": "1993-036HE",
        "meta_epoch": "2025-12-25T13:24:02.416320",
        "meta_mean_motion": 14.33992204,
        "meta_eccentricity": 0.0062123,
        "meta_inclination": 73.9541,
        "meta_ra_of_asc_node": 27.1646,
        "meta_arg_of_pericenter": 206.4725,
        "meta_mean_anomaly": 279.7555,
        "meta_ephemeris_type": 0,
        "meta_classification_type": "U",
        "meta_norad_cat_id": 34019,
        "meta_element_set_no": 999,
        "meta_rev_at_epoch": 87704,
        "meta_bstar": 0.00075462,
        "meta_mean_motion_dot": 2.126e-05,
        "meta_mean_motion_ddot": 0,
        "tle_line1": "1 34019U 93036HE  25359.55836130  .00002126  00000+0  75462-3 0  9990",
        "tle_line2": "2 34019  73.9541  27.1646 0062123 206.4725 279.7555 14.33992204877047"
      },
      "geometry": {
        "type": "Point",
        "coordinates": [
          16.36497979447214,
          -31.323002153199603
        ]
      }
    },
    {
      "type": "Feature",
      "properties": {
        "norad_id": 34021,
        "name": "COSMOS 2251 DEB",
        "group": "cosmos-2251-debris",
        "lat": 67.6652596642929,
        "lon": -119.1345945749268,
        "alt_km": 730.460801496859,
        "timestamp": "2025-12-25T22:42:17.406614+00:00",
        "meta_object_name": "COSMOS 2251 DEB",
        "meta_object_id": "1993-036HG",
        "meta_epoch": "2025-12-25T13:59:23.683200",
        "meta_mean_motion": 14.49993324,
        "meta_eccentricity": 0.0020971,
        "meta_inclination": 74.0361,
        "meta_ra_of_asc_node": 105.7137,
        "meta_arg_of_pericenter": 248.5952,
        "meta_mean_anomaly": 122.6271,
        "meta_ephemeris_type": 0,
        "meta_classification_type": "U",
        "meta_norad_cat_id": 34021,
        "meta_element_set_no": 999,
        "meta_rev_at_epoch": 88816,
        "meta_bstar": 0.00049562,
        "meta_mean_motion_dot": 1.897e-05,
        "meta_mean_motion_ddot": 0,
        "tle_line1": "1 34021U 93036HG  25359.58291300  .00001897  00000+0  49562-3 0  9996",
        "tle_line2": "2 34021  74.0361 105.7137 0020971 248.5952 122.6271 14.49993324888161"
      },
      "geometry": {
        "type": "Point",
        "coordinates": [
          -119.1345945749268,
          67.6652596642929
        ]
      }
    }
  ]
}